start=new Date('2022-12-10T00:00:00.000Z').valueOf();
sats=[{"REF_FRAME":"TEME","INCLINATION":"53.2181","OBJECT_ID":"2022-049AU","REV_AT_EPOCH":"3350","PERIAPSIS":"538.858","MEAN_MOTION":"15.08820800","ELEMENT_SET_NO":"999","MEAN_ELEMENT_THEORY":"SGP4","CENTER_NAME":"EARTH","COUNTRY_CODE":"US","ARG_OF_PERICENTER":"324.7834","DECAY_DATE":null,"MEAN_MOTION_DOT":"-0.00008602","OBJECT_NAME":"STARLINK-3883","NORAD_CAT_ID":"52493","OBJECT_TYPE":"PAYLOAD","RA_OF_ASC_NODE":"333.3832","MEAN_MOTION_DDOT":"0.0000000000000","MEAN_ANOMALY":"35.3068","LAUNCH_DATE":"2022-05-06","TLE_LINE2":"2 52493  53.2181 333.3832 0001367 324.7834  35.3068 15.08820800 33506","BSTAR":"-0.00052327000000","RCS_SIZE":"LARGE","FILE":"3686026","APOAPSIS":"540.750","TLE_LINE1":"1 52493U 22049AU  22343.67054386 -.00008602  00000-0 -52327-3 0  9993","EPOCH":"2022-12-09T16:05:34.989504","SEMIMAJOR_AXIS":"6917.939","GP_ID":"219862480","SITE":"AFETR","PERIOD":"95.439","TIME_SYSTEM":"UTC","EPHEMERIS_TYPE":"0","CLASSIFICATION_TYPE":"U","ECCENTRICITY":"0.00013670"},{"DECAY_DATE":null,"ARG_OF_PERICENTER":"289.2782","MEAN_MOTION_DOT":"-0.00031319","MEAN_MOTION":"15.08635478","ELEMENT_SET_NO":"999","COUNTRY_CODE":"US","CENTER_NAME":"EARTH","MEAN_ELEMENT_THEORY":"SGP4","MEAN_MOTION_DDOT":"0.0000000000000","RA_OF_ASC_NODE":"333.1887","NORAD_CAT_ID":"52494","OBJECT_TYPE":"PAYLOAD","OBJECT_NAME":"STARLINK-3857","INCLINATION":"53.2169","REF_FRAME":"TEME","REV_AT_EPOCH":"3351","PERIAPSIS":"537.977","OBJECT_ID":"2022-049AV","SITE":"AFETR","SEMIMAJOR_AXIS":"6918.506","GP_ID":"219862720","TIME_SYSTEM":"UTC","ECCENTRICITY":"0.00034600","CLASSIFICATION_TYPE":"U","EPHEMERIS_TYPE":"0","PERIOD":"95.450","MEAN_ANOMALY":"70.7836","FILE":"3686026","RCS_SIZE":"LARGE","TLE_LINE1":"1 52494U 22049AV  22343.71486250 -.00031319  00000-0 -19690-2 0  9994","EPOCH":"2022-12-09T17:09:24.120000","APOAPSIS":"542.764","LAUNCH_DATE":"2022-05-06","TLE_LINE2":"2 52494  53.2169 333.1887 0003460 289.2782  70.7836 15.08635478 33516","BSTAR":"-0.00196900000000"},{"LAUNCH_DATE":"2022-05-06","BSTAR":"-0.00036864000000","TLE_LINE2":"2 52495  53.2159 334.6084 0003160  25.6705 334.4443 15.08824625 33300","FILE":"3685263","RCS_SIZE":"LARGE","TLE_LINE1":"1 52495U 22049AW  22343.39824935 -.00006149  00000-0 -36864-3 0  9991","EPOCH":"2022-12-09T09:33:28.743840","APOAPSIS":"541.978","MEAN_ANOMALY":"334.4443","PERIOD":"95.439","TIME_SYSTEM":"UTC","CLASSIFICATION_TYPE":"U","ECCENTRICITY":"0.00031600","EPHEMERIS_TYPE":"0","SEMIMAJOR_AXIS":"6917.927","GP_ID":"219843324","SITE":"AFETR","OBJECT_ID":"2022-049AW","REV_AT_EPOCH":"3330","PERIAPSIS":"537.606","INCLINATION":"53.2159","REF_FRAME":"TEME","OBJECT_NAME":"STARLINK-3905","RA_OF_ASC_NODE":"334.6084","MEAN_MOTION_DDOT":"0.0000000000000","OBJECT_TYPE":"PAYLOAD","NORAD_CAT_ID":"52495","MEAN_MOTION":"15.08824625","ELEMENT_SET_NO":"999","CENTER_NAME":"EARTH","COUNTRY_CODE":"US","MEAN_ELEMENT_THEORY":"SGP4","DECAY_DATE":null,"ARG_OF_PERICENTER":"25.6705","MEAN_MOTION_DOT":"-0.00006149"},{"OBJECT_NAME":"STARLINK-3871","NORAD_CAT_ID":"52496","OBJECT_TYPE":"PAYLOAD","RA_OF_ASC_NODE":"328.2961","MEAN_MOTION_DDOT":"0.0000000000000","MEAN_ELEMENT_THEORY":"SGP4","COUNTRY_CODE":"US","CENTER_NAME":"EARTH","ELEMENT_SET_NO":"999","MEAN_MOTION":"15.08819690","MEAN_MOTION_DOT":"-0.00001738","ARG_OF_PERICENTER":"33.3322","DECAY_DATE":null,"OBJECT_ID":"2022-049AX","PERIAPSIS":"537.786","REV_AT_EPOCH":"3341","REF_FRAME":"TEME","INCLINATION":"53.2177","PERIOD":"95.439","EPHEMERIS_TYPE":"0","ECCENTRICITY":"0.00029220","CLASSIFICATION_TYPE":"U","TIME_SYSTEM":"UTC","GP_ID":"219862729","SEMIMAJOR_AXIS":"6917.942","SITE":"AFETR","BSTAR":"-0.00009113300000","TLE_LINE2":"2 52496  53.2177 328.2961 0002922  33.3322 326.7854 15.08819690 33418","LAUNCH_DATE":"2022-05-06","APOAPSIS":"541.829","TLE_LINE1":"1 52496U 22049AX  22343.68390618 -.00001738  00000-0 -91133-4 0  9990","EPOCH":"2022-12-09T16:24:49.493952","RCS_SIZE":"LARGE","FILE":"3686026","MEAN_ANOMALY":"326.7854"},{"NORAD_CAT_ID":"52497","OBJECT_TYPE":"PAYLOAD","RA_OF_ASC_NODE":"334.3443","MEAN_MOTION_DDOT":"0.0000000000000","OBJECT_NAME":"STARLINK-3884","DECAY_DATE":null,"ARG_OF_PERICENTER":"24.4482","MEAN_MOTION_DOT":"-0.00013269","MEAN_MOTION":"15.08777846","ELEMENT_SET_NO":"999","MEAN_ELEMENT_THEORY":"SGP4","CENTER_NAME":"EARTH","COUNTRY_CODE":"US","REV_AT_EPOCH":"3347","PERIAPSIS":"536.842","OBJECT_ID":"2022-049AY","REF_FRAME":"TEME","INCLINATION":"53.2170","TIME_SYSTEM":"UTC","EPHEMERIS_TYPE":"0","ECCENTRICITY":"0.00044710","CLASSIFICATION_TYPE":"U","PERIOD":"95.441","SITE":"AFETR","GP_ID":"219848577","SEMIMAJOR_AXIS":"6918.070","RCS_SIZE":"LARGE","FILE":"3685422","TLE_LINE1":"1 52497U 22049AY  22343.45713586 -.00013269  00000-0 -81829-3 0  9991","EPOCH":"2022-12-09T10:58:16.538304","APOAPSIS":"543.028","LAUNCH_DATE":"2022-05-06","BSTAR":"-0.00081829000000","TLE_LINE2":"2 52497  53.2170 334.3443 0004471  24.4482 335.6722 15.08777846 33479","MEAN_ANOMALY":"335.6722"},{"INCLINATION":"53.2196","REF_FRAME":"TEME","OBJECT_ID":"2022-049AZ","PERIAPSIS":"537.923","REV_AT_EPOCH":"3344","CENTER_NAME":"EARTH","COUNTRY_CODE":"US","MEAN_ELEMENT_THEORY":"SGP4","MEAN_MOTION":"15.08847644","ELEMENT_SET_NO":"999","MEAN_MOTION_DOT":"0.00000829","DECAY_DATE":null,"ARG_OF_PERICENTER":"24.5365","OBJECT_NAME":"STARLINK-3925","MEAN_MOTION_DDOT":"0.0000000000000","RA_OF_ASC_NODE":"324.4341","OBJECT_TYPE":"PAYLOAD","NORAD_CAT_ID":"52498","MEAN_ANOMALY":"335.5751","BSTAR":"0.00007016600000","TLE_LINE2":"2 52498  53.2196 324.4341 0002601  24.5365 335.5751 15.08847644 33441","LAUNCH_DATE":"2022-05-06","TLE_LINE1":"1 52498U 22049AZ  22343.43225517  .00000829  00000-0  70166-4 0  9991","EPOCH":"2022-12-09T10:22:26.846688","APOAPSIS":"541.521","FILE":"3685263","RCS_SIZE":"LARGE","GP_ID":"219843074","SEMIMAJOR_AXIS":"6917.857","SITE":"AFETR","PERIOD":"95.437","CLASSIFICATION_TYPE":"U","ECCENTRICITY":"0.00026010","EPHEMERIS_TYPE":"0","TIME_SYSTEM":"UTC"},{"MEAN_MOTION_DDOT":"0.0000000000000","RA_OF_ASC_NODE":"333.1724","OBJECT_TYPE":"PAYLOAD","NORAD_CAT_ID":"52499","OBJECT_NAME":"STARLINK-3894","MEAN_MOTION_DOT":"-0.00042424","DECAY_DATE":null,"ARG_OF_PERICENTER":"305.9246","CENTER_NAME":"EARTH","COUNTRY_CODE":"US","MEAN_ELEMENT_THEORY":"SGP4","MEAN_MOTION":"15.08681326","ELEMENT_SET_NO":"999","PERIAPSIS":"536.915","REV_AT_EPOCH":"3351","OBJECT_ID":"2022-049BA","INCLINATION":"53.2169","REF_FRAME":"TEME","ECCENTRICITY":"0.00047920","CLASSIFICATION_TYPE":"U","EPHEMERIS_TYPE":"0","TIME_SYSTEM":"UTC","PERIOD":"95.448","SITE":"AFETR","GP_ID":"219862735","SEMIMAJOR_AXIS":"6918.365","EPOCH":"2022-12-09T17:14:33.196128","TLE_LINE1":"1 52499U 22049BA  22343.71843977 -.00042424  00000-0 -26740-2 0  9995","APOAPSIS":"543.546","FILE":"3686027","RCS_SIZE":"LARGE","BSTAR":"-0.00267400000000","TLE_LINE2":"2 52499  53.2169 333.1724 0004792 305.9246  54.1301 15.08681326 33517","LAUNCH_DATE":"2022-05-06","MEAN_ANOMALY":"54.1301"},{"MEAN_ELEMENT_THEORY":"SGP4","CENTER_NAME":"EARTH","COUNTRY_CODE":"US","MEAN_MOTION":"15.08836552","ELEMENT_SET_NO":"999","MEAN_MOTION_DOT":"-0.00000829","DECAY_DATE":null,"ARG_OF_PERICENTER":"12.8346","OBJECT_NAME":"STARLINK-3866","OBJECT_TYPE":"PAYLOAD","NORAD_CAT_ID":"52500","RA_OF_ASC_NODE":"324.4555","MEAN_MOTION_DDOT":"0.0000000000000","REF_FRAME":"TEME","INCLINATION":"53.2181","OBJECT_ID":"2022-049BB","PERIAPSIS":"538.060","REV_AT_EPOCH":"3344","GP_ID":"219842573","SEMIMAJOR_AXIS":"6917.891","SITE":"AFETR","PERIOD":"95.438","EPHEMERIS_TYPE":"0","CLASSIFICATION_TYPE":"U","ECCENTRICITY":"0.00024510","TIME_SYSTEM":"UTC","MEAN_ANOMALY":"347.2708","BSTAR":"-0.00003397800000","TLE_LINE2":"2 52500  53.2181 324.4555 0002451  12.8346 347.2708 15.08836552 33446","LAUNCH_DATE":"2022-05-06","APOAPSIS":"541.452","TLE_LINE1":"1 52500U 22049BB  22343.42858981 -.00000829  00000-0 -33978-4 0  9993","EPOCH":"2022-12-09T10:17:10.159584","RCS_SIZE":"LARGE","FILE":"3685263"},{"OBJECT_ID":"2022-049BC","PERIAPSIS":"537.605","REV_AT_EPOCH":"3351","REF_FRAME":"TEME","INCLINATION":"53.2184","OBJECT_NAME":"STARLINK-3907","OBJECT_TYPE":"PAYLOAD","NORAD_CAT_ID":"52501","MEAN_MOTION_DDOT":"0.0000000000000","RA_OF_ASC_NODE":"333.1829","MEAN_ELEMENT_THEORY":"SGP4","CENTER_NAME":"EARTH","COUNTRY_CODE":"US","MEAN_MOTION":"15.08671802","ELEMENT_SET_NO":"999","MEAN_MOTION_DOT":"-0.00027724","ARG_OF_PERICENTER":"285.7467","DECAY_DATE":null,"TLE_LINE2":"2 52501  53.2184 333.1829 0003837 285.7467  74.3102 15.08671802 33514","BSTAR":"-0.00173820000000","LAUNCH_DATE":"2022-05-06","EPOCH":"2022-12-09T17:10:43.811040","TLE_LINE1":"1 52501U 22049BC  22343.71578485 -.00027724  00000-0 -17382-2 0  9996","APOAPSIS":"542.914","RCS_SIZE":"LARGE","FILE":"3686027","MEAN_ANOMALY":"74.3102","PERIOD":"95.448","EPHEMERIS_TYPE":"0","ECCENTRICITY":"0.00038370","CLASSIFICATION_TYPE":"U","TIME_SYSTEM":"UTC","GP_ID":"219862484","SEMIMAJOR_AXIS":"6918.395","SITE":"AFETR"},{"REV_AT_EPOCH":"3364","PERIAPSIS":"538.584","OBJECT_ID":"2022-049BD","REF_FRAME":"TEME","INCLINATION":"53.2180","OBJECT_TYPE":"PAYLOAD","NORAD_CAT_ID":"52502","MEAN_MOTION_DDOT":"0.0000000000000","RA_OF_ASC_NODE":"323.2891","OBJECT_NAME":"STARLINK-3912","ARG_OF_PERICENTER":"20.5386","DECAY_DATE":null,"MEAN_MOTION_DOT":"-0.00000176","MEAN_MOTION":"15.08828400","ELEMENT_SET_NO":"999","MEAN_ELEMENT_THEORY":"SGP4","CENTER_NAME":"EARTH","COUNTRY_CODE":"US","RCS_SIZE":"LARGE","FILE":"3686110","EPOCH":"2022-12-09T16:29:29.323680","TLE_LINE1":"1 52502U 22049BD  22343.68714495 -.00000176  00000-0  70518-5 0  9990","APOAPSIS":"540.978","LAUNCH_DATE":"2022-05-06","TLE_LINE2":"2 52502  53.2180 323.2891 0001730  20.5386 339.5676 15.08828400 33649","BSTAR":"0.00000705180000","MEAN_ANOMALY":"339.5676","TIME_SYSTEM":"UTC","EPHEMERIS_TYPE":"0","CLASSIFICATION_TYPE":"U","ECCENTRICITY":"0.00017300","PERIOD":"95.438","SITE":"AFETR","GP_ID":"219864808","SEMIMAJOR_AXIS":"6917.916"}];
